[{"OBJECT_NAME":"O3B FM20","OBJECT_ID":"2019-020A","EPOCH":"2026-04-04T01:15:43.449408","MEAN_MOTION":5.00115555,"ECCENTRICITY":0.00026672,"INCLINATION":0.0529,"RA_OF_ASC_NODE":0.8932,"ARG_OF_PERICENTER":1.6559,"MEAN_ANOMALY":357.4506,"EPHEMERIS_TYPE":0,"CLASSIFICATION_TYPE":"U","NORAD_CAT_ID":44112,"ELEMENT_SET_NO":999,"REV_AT_EPOCH":12785,"BSTAR":0,"MEAN_MOTION_DOT":-2.6e-7,"MEAN_MOTION_DDOT":0},{"OBJECT_NAME":"O3B FM19","OBJECT_ID":"2019-020B","EPOCH":"2026-04-04T01:54:44.851392","MEAN_MOTION":5.00116074,"ECCENTRICITY":0.00040181,"INCLINATION":0.0578,"RA_OF_ASC_NODE":352.7829,"ARG_OF_PERICENTER":14.9317,"MEAN_ANOMALY":352.29,"EPHEMERIS_TYPE":0,"CLASSIFICATION_TYPE":"U","NORAD_CAT_ID":44113,"ELEMENT_SET_NO":999,"REV_AT_EPOCH":12773,"BSTAR":0,"MEAN_MOTION_DOT":-2.6e-7,"MEAN_MOTION_DDOT":0},{"OBJECT_NAME":"O3B FM17","OBJECT_ID":"2019-020C","EPOCH":"2026-04-04T03:50:03.765984","MEAN_MOTION":5.00115489,"ECCENTRICITY":0.00026341,"INCLINATION":0.0359,"RA_OF_ASC_NODE":348.288,"ARG_OF_PERICENTER":21.5684,"MEAN_ANOMALY":350.1471,"EPHEMERIS_TYPE":0,"CLASSIFICATION_TYPE":"U","NORAD_CAT_ID":44114,"ELEMENT_SET_NO":999,"REV_AT_EPOCH":12782,"BSTAR":0,"MEAN_MOTION_DOT":-2.6e-7,"MEAN_MOTION_DDOT":0},{"OBJECT_NAME":"O3B FM18","OBJECT_ID":"2019-020D","EPOCH":"2026-04-03T21:44:53.762784","MEAN_MOTION":5.0011535,"ECCENTRICITY":0.00027311,"INCLINATION":0.0533,"RA_OF_ASC_NODE":1.1444,"ARG_OF_PERICENTER":12.1257,"MEAN_ANOMALY":346.7354,"EPHEMERIS_TYPE":0,"CLASSIFICATION_TYPE":"U","NORAD_CAT_ID":44115,"ELEMENT_SET_NO":999,"REV_AT_EPOCH":12793,"BSTAR":0,"MEAN_MOTION_DOT":-2.6e-7,"MEAN_MOTION_DDOT":0},{"OBJECT_NAME":"SALSAT","OBJECT_ID":"2020-068K","EPOCH":"2026-04-03T22:39:05.415552","MEAN_MOTION":15.28700775,"ECCENTRICITY":0.00094367,"INCLINATION":97.8863,"RA_OF_ASC_NODE":92.5537,"ARG_OF_PERICENTER":192.637,"MEAN_ANOMALY":167.4633,"EPHEMERIS_TYPE":0,"CLASSIFICATION_TYPE":"U","NORAD_CAT_ID":46495,"ELEMENT_SET_NO":999,"REV_AT_EPOCH":30401,"BSTAR":0.00056346593,"MEAN_MOTION_DOT":0.00015678,"MEAN_MOTION_DDOT":0},{"OBJECT_NAME":"O3B MPOWER F1","OBJECT_ID":"2022-174A","EPOCH":"2026-04-04T04:56:47.034816","MEAN_MOTION":5.00114902,"ECCENTRICITY":0.00056134,"INCLINATION":0.0622,"RA_OF_ASC_NODE":349.0208,"ARG_OF_PERICENTER":42.2667,"MEAN_ANOMALY":8.6694,"EPHEMERIS_TYPE":0,"CLASSIFICATION_TYPE":"U","NORAD_CAT_ID":54755,"ELEMENT_SET_NO":999,"REV_AT_EPOCH":6165,"BSTAR":0,"MEAN_MOTION_DOT":-2.6e-7,"MEAN_MOTION_DDOT":0},{"OBJECT_NAME":"O3B MPOWER F2","OBJECT_ID":"2022-174B","EPOCH":"2026-04-04T03:36:49.257504","MEAN_MOTION":5.00115558,"ECCENTRICITY":0.00059328,"INCLINATION":0.0594,"RA_OF_ASC_NODE":346.2389,"ARG_OF_PERICENTER":26.2539,"MEAN_ANOMALY":347.5204,"EPHEMERIS_TYPE":0,"CLASSIFICATION_TYPE":"U","NORAD_CAT_ID":54756,"ELEMENT_SET_NO":999,"REV_AT_EPOCH":6174,"BSTAR":0,"MEAN_MOTION_DOT":-2.6e-7,"MEAN_MOTION_DDOT":0},{"OBJECT_NAME":"O3B MPOWER F4","OBJECT_ID":"2023-059A","EPOCH":"2026-04-03T19:33:47.003040","MEAN_MOTION":5.00116126,"ECCENTRICITY":0.00070144,"INCLINATION":0.0642,"RA_OF_ASC_NODE":4.5664,"ARG_OF_PERICENTER":22.3032,"MEAN_ANOMALY":333.165,"EPHEMERIS_TYPE":0,"CLASSIFICATION_TYPE":"U","NORAD_CAT_ID":56367,"ELEMENT_SET_NO":999,"REV_AT_EPOCH":5488,"BSTAR":0,"MEAN_MOTION_DOT":-2.6e-7,"MEAN_MOTION_DDOT":0},{"OBJECT_NAME":"O3B MPOWER F3","OBJECT_ID":"2023-059B","EPOCH":"2026-04-04T01:09:34.707168","MEAN_MOTION":5.0011673,"ECCENTRICITY":0.00065904,"INCLINATION":0.0653,"RA_OF_ASC_NODE":4.5393,"ARG_OF_PERICENTER":12.4195,"MEAN_ANOMALY":343.0615,"EPHEMERIS_TYPE":0,"CLASSIFICATION_TYPE":"U","NORAD_CAT_ID":56368,"ELEMENT_SET_NO":999,"REV_AT_EPOCH":5101,"BSTAR":0,"MEAN_MOTION_DOT":-2.6e-7,"MEAN_MOTION_DDOT":0},{"OBJECT_NAME":"O3B MPOWER F9","OBJECT_ID":"2025-153A","EPOCH":"2026-04-04T00:23:47.371200","MEAN_MOTION":5.00116246,"ECCENTRICITY":0.0005159,"INCLINATION":0.051,"RA_OF_ASC_NODE":14.9199,"ARG_OF_PERICENTER":24.4528,"MEAN_ANOMALY":320.6631,"EPHEMERIS_TYPE":0,"CLASSIFICATION_TYPE":"U","NORAD_CAT_ID":64866,"ELEMENT_SET_NO":999,"REV_AT_EPOCH":1585,"BSTAR":0,"MEAN_MOTION_DOT":-2.6e-7,"MEAN_MOTION_DDOT":0},{"OBJECT_NAME":"O3B MPOWER F10","OBJECT_ID":"2025-153B","EPOCH":"2026-04-04T04:22:27.364224","MEAN_MOTION":5.00115051,"ECCENTRICITY":0.00036145,"INCLINATION":0.0516,"RA_OF_ASC_NODE":9.6909,"ARG_OF_PERICENTER":256.6776,"MEAN_ANOMALY":93.5886,"EPHEMERIS_TYPE":0,"CLASSIFICATION_TYPE":"U","NORAD_CAT_ID":64867,"ELEMENT_SET_NO":999,"REV_AT_EPOCH":1832,"BSTAR":0,"MEAN_MOTION_DOT":-2.6e-7,"MEAN_MOTION_DDOT":0}]
